QIANFAN-81              
1 63167U 25046J   25212.58087028  .00000156  00000+0  22261-3 0  9997
2 63167  88.9858 333.6942 0016195 144.0318 216.1926 13.50959733 29377
QIANFAN-82              
1 63168U 25046K   25212.61364110  .00000169  00000+0  24303-3 0  9995
2 63168  88.9859 333.7343 0014165 150.4946 209.7008 13.50961418 29369
QIANFAN-83              
1 63169U 25046L   25212.61988515  .00000212  00000+0  25870-3 0  9996
2 63169  88.9858 333.7725 0015610 144.0110 216.2101 13.61930486 29349
QIANFAN-84              
1 63170U 25046M   25212.56845151  .00000170  00000+0  24368-3 0  9994
2 63170  88.9858 333.8721 0017198 148.3029 211.9162 13.50963409 29288
QIANFAN-85              
1 63171U 25046N   25212.63845075  .00000161  00000+0  23033-3 0  9996
2 63171  88.9858 333.7371 0014534 149.5978 210.6019 13.50957710 29360
QIANFAN-86              
1 63172U 25046P   25212.57261420  .00000161  00000+0  23003-3 0  9993
2 63172  88.9860 333.6029 0012324 152.6403 207.5400 13.50957944 29432
QIANFAN-87              
1 63173U 25046Q   25212.61776317  .00000172  00000+0  24827-3 0  9992
2 63173  88.9856 333.7150 0013149 148.3025 211.8921 13.50955831 29374
QIANFAN-88              
1 63174U 25046R   25212.63442193  .00000164  00000+0  23457-3 0  9996
2 63174  88.9859 333.6646 0013334 155.7039 204.4743 13.50958191 29406
